VNREDSAT 1              
1 39160U 13021B   24193.59541386  .00000985  00000+0  19833-3 0  9994
2 39160  97.9960 259.7048 0001325 106.4399 253.6949 14.63649747597009
ARIRANG-5 (KOMPSAT-5)   
1 39227U 13042A   24193.57857702  .00002312  00000+0  16961-3 0  9996
2 39227  97.6213  19.1369 0002338  50.5901 309.5532 15.04478843597763
SKYSAT-A                
1 39418U 13066C   24193.55235969  .00003274  00000+0  23160-3 0  9994
2 39418  97.4853 253.0983 0024061 217.7302 142.2238 15.05316363582019
DUBAISAT-2              
1 39419U 13066D   24193.57165762  .00004617  00000+0  36885-3 0  9990
2 39419  97.4122 197.4204 0012016 269.6932  90.2915 15.00661355580187
GPM-CORE                
1 39574U 14009C   24193.47418734  .00010290  00000+0  22487-3 0  9996
2 39574  64.9848 151.7613 0006538 261.4236  98.6163 15.44611329588807
SENTINEL-1A             
1 39634U 14016A   24193.56200367  .00000314  00000+0  76305-4 0  9997
2 39634  98.1794 200.3043 0001376  90.9585 269.1772 14.59199348547115
KAZEOSAT 1              
1 39731U 14024A   24193.56901828  .00000363  00000+0  12371-3 0  9990
2 39731  98.3944 269.6187 0001029  97.3239 262.8068 14.42043096536869
ALOS-2                  
1 39766U 14029A   24193.52564533  .00001789  00000+0  24644-3 0  9996
2 39766  97.9231 289.8193 0001524  97.1891 262.9494 14.79467740547248
KAZEOSAT 2              
1 40010U 14033A   24193.61884163  .00000796  00000+0  10508-3 0  9990
2 40010  97.6176  57.5379 0013025 124.2041 236.0409 14.82570348544283
HODOYOSHI-4             
1 40011U 14033B   24193.57089010  .00001803  00000+0  21934-3 0  9999
2 40011  97.5802  42.0636 0026548 117.9946 242.3960 14.84370829543972
DEIMOS-2                
1 40013U 14033D   24193.58367700  .00002291  00000+0  24944-3 0  9993
2 40013  97.6780  79.5213 0002137 108.4834 251.6616 14.88955924532524
HODOYOSHI-3             
1 40015U 14033F   24193.47884982  .00002188  00000+0  28341-3 0  9999
2 40015  97.5974  18.0177 0035885 153.5078 206.7980 14.81352468542976
SPOT 7                  
1 40053U 14034A   24193.60421433  .00000754  00000+0  16873-3 0  9999
2 40053  98.1572 259.9850 0001042  97.3468 262.7850 14.59432046534154
SKYSAT-B                
1 40072U 14037D   24193.31513844  .00001680  00000+0  20790-3 0  9991
2 40072  98.3317 106.1530 0007243  53.2230 306.9647 14.84176432541109
WORLDVIEW-3 (WV-3)      
1 40115U 14048A   24193.52166161  .00001577  00000+0  19036-3 0  9996
2 40115  97.8675 266.4646 0001810  80.4834 279.6585 14.85173329537185
GAOFEN-2                
1 40118U 14049A   24193.60334039  .00001552  00000+0  20804-3 0  9998
2 40118  98.1106 243.6981 0009676   3.1053 357.0218 14.80846134534832
YAOGAN-21               
1 40143U 14053A   24193.60062734  .00009921  00000+0  42096-3 0  9996
2 40143  97.2506 250.8459 0009169  88.8799 271.3489 15.23254743547499
YAOGAN-22               
1 40275U 14063A   24193.34474842 -.00000014  00000+0  84841-4 0  9991
2 40275 100.6667 325.3703 0006104 345.4915  14.6020 13.15484213467003
ASNARO                  
1 40298U 14070A   24193.51425382  .00015306  00000+0  72490-3 0  9993
2 40298  97.4103 274.6132 0006633 138.7774 221.3963 15.19402076536846
HODOYOSHI-1             
1 40299U 14070B   24193.60090387  .00024904  00000+0  45121-3 0  9992
2 40299  97.1363 253.4452 0005125 307.7451  52.3336 15.49608381538889
YAOGAN-23               
1 40305U 14071A   24193.54500948  .00040280  00000+0  64936-3 0  9993
2 40305  97.6884 180.2619 0002503 106.4056 253.7471 15.52823633536130
YAOGAN-24               
1 40310U 14072A   24193.52788277  .00001214  00000+0  18277-3 0  9992
2 40310  98.0586 318.0113 0013783  11.7322 348.4206 14.76215855519614
CBERS 4                 
1 40336U 14079A   24193.58440959  .00000197  00000+0  83385-4 0  9997
2 40336  98.3993 261.2792 0000684 100.8885 259.2378 14.35498551502723
RESURS-P 2              
1 40360U 14087A   24193.56308480  .00029087  00000+0  34840-3 0  9993
2 40360  97.1507 280.3054 0006135 190.9981 169.1144 15.60892428533336
YAOGAN-26               
1 40362U 14088A   24193.57799552  .00013075  00000+0  54970-3 0  9997
2 40362  97.0831 213.2288 0001843   0.0697   0.0541 15.23528251529560
SMAP                    
1 40376U 15003A   24193.57537525  .00000814  00000+0  16651-3 0  9991
2 40376  98.1273 199.6206 0001298  89.4620 270.6731 14.63383223504420
KOMPSAT-3A              
1 40536U 15014A   24193.54600421  .00010223  00000+0  44101-3 0  9990
2 40536  97.6138 144.0684 0002765 167.4656 192.6649 15.22733449513394
SENTINEL-2A             
1 40697U 15028A   24193.50824578  .00000215  00000+0  98694-4 0  9997
2 40697  98.5681 267.4317 0001230  95.5713 264.5610 14.30821296472813
GAOFEN-8                
1 40701U 15030A   24193.34300952  .00014422  00000+0  59274-3 0  9998
2 40701  97.6584 348.5438 0006159 197.8894 162.2127 15.24274946503323
CARBONITE 1 (CBNT-1)    
1 40718U 15032D   24193.56334701  .00002300  00000+0  31961-3 0  9996
2 40718  97.6576  32.5264 0017051  85.3486 274.9673 14.78676596484869
YAOGAN-27               
1 40878U 15040A   24193.54403120 -.00000026  00000+0  41716-4 0  9996
2 40878 100.0787 201.2073 0008939  46.7330 313.4528 13.16020001424841
GAOFEN-9 01             
1 40894U 15047A   24193.57357904  .00001446  00000+0  19731-3 0  9999
2 40894  97.7285 247.3283 0027589 289.7584  70.0653 14.79876425475705
LAPAN-A2                
1 40931U 15052B   24180.14795698  .00001574  00000+0  12542-3 0  9997
2 40931   5.9997 274.4192 0013395 238.9714 120.9097 14.77898591473081
YAOGAN-28               
1 41026U 15064A   24193.55379566  .00010874  00000+0  45992-3 0  9995
2 41026  97.2144 342.9449 0004478 109.7723 250.3997 15.23365945483192
YAOGAN-29               
1 41038U 15069A   24193.55472461  .00000733  00000+0  99870-4 0  9999
2 41038  98.0541 208.1083 0002581 125.3254 234.8200 14.81736169466073
KENT RIDGE 1            
1 41167U 15077B   24193.37726762  .00004676  00000+0  20451-3 0  9995
2 41167  14.9810  88.1850 0009847  49.3564 310.7613 15.15320875473555
TELEOS-1                
1 41169U 15077D   24193.60796365  .00021127  00000+0  63189-3 0  9994
2 41169  14.9804 348.9488 0005696 232.9596 127.0206 15.32042223474608
GAOFEN-4                
1 41194U 15083A   24193.59216084 -.00000328  00000+0  00000+0 0  9992
2 41194   0.0702 248.6508 0001180 185.1188 175.0258  1.00276720 31451
JASON-3                 
1 41240U 16002A   24193.54861030 -.00000035  00000+0  11418-3 0  9992
2 41240  66.0401 160.7431 0008438 269.5165  90.4883 12.80929058396621
SENTINEL-3A             
1 41335U 16011A   24193.56965369  .00000165  00000+0  86238-4 0  9995
2 41335  98.6227 260.0258 0001316  89.1083 271.0248 14.26733554437441
ZIYUAN 3-2 (ZY 3-2)     
1 41556U 16033A   24193.55876121  .00009607  00000+0  43108-3 0  9998
2 41556  97.4548 268.6910 0001825 133.6691 226.4696 15.21400392450705
CARTOSAT-2C             
1 41599U 16040A   24193.59093641  .00007380  00000+0  35339-3 0  9998
2 41599  97.4719 252.3964 0013784  75.7894 284.4870 15.19158177446586
SKYSAT-C1               
1 41601U 16040C   24193.11373705  .00011169  00000+0  39125-3 0  9999
2 41601  97.0599 252.3218 0003296 144.7000 215.4460 15.29630702449804
LAPAN-A3                
1 41603U 16040E   24193.57949682  .00003759  00000+0  15096-3 0  9991
2 41603  97.1414 206.1969 0012508  24.2970 335.8856 15.25473306446946
BIROS                   
1 41604U 16040F   24193.58487644  .00012415  00000+0  32178-3 0  9997
2 41604  97.1212 221.3583 0006893 328.3059  31.7771 15.39135302447934
GAOFEN-3                
1 41727U 16049A   24193.57780960  .00000095  00000+0  41964-4 0  9993
2 41727  98.4042 200.8817 0001349  99.8189 260.3153 14.42223330416945
SKYSAT-C4               
1 41771U 16058B   24193.55462264  .00013745  00000+0  41544-3 0  9993
2 41771  97.0077 239.8764 0004773  94.2812 265.8977 15.34321076436951
SKYSAT-C5               
1 41772U 16058C   24193.58012563  .00016211  00000+0  49498-3 0  9997
2 41772  97.1561 248.1142 0000710   6.4970 353.6282 15.33976831435432
SKYSAT-C2               
1 41773U 16058D   24193.55443211  .00010607  00000+0  37166-3 0  9995
2 41773  97.0100 238.5093 0004374 112.2224 247.9482 15.29628856436846
SKYSAT-C3               
1 41774U 16058E   24193.54982854  .00018214  00000+0  43366-3 0  9997
2 41774  97.0085 246.5400 0005041 102.1565 258.0248 15.41644701437393
ALSAT 1B                
1 41785U 16059C   24193.54621607  .00000594  00000+0  10437-3 0  9991
2 41785  97.8170 220.9652 0008917 340.9389  19.1484 14.71028969416786
PATHFINDER 1            
1 41787U 16059E   24193.58855952  .00000956  00000+0  18370-3 0  9995
2 41787  97.8295 214.5693 0028083 294.4687  65.3589 14.65565868416270
SCATSAT 1               
1 41790U 16059H   24193.58608157  .00001447  00000+0  22445-3 0  9996
2 41790  98.2184 236.5407 0051935 356.3264   3.7555 14.73885794  5505
GOKTURK 1A              
1 41875U 16073A   24193.59160857  .00000658  00000+0  13813-3 0  9999
2 41875  98.1477  87.6147 0001725  91.1963 268.9436 14.62794265405676
RESOURCESAT-2A          
1 41877U 16074A   24193.49994010  .00000237  00000+0  12769-3 0  9999
2 41877  98.6447 266.4693 0000365  38.5304 321.5900 14.21664111394036
CARTOSAT-2D             
1 41948U 17008A   24193.55860519  .00006949  00000+0  33238-3 0  9999
2 41948  97.4236 252.4208 0006555 183.3541 176.7651 15.19279308410449
SENTINEL-2B             
1 42063U 17013A   24193.54319581  .00000200  00000+0  92801-4 0  9997
2 42063  98.5686 267.4624 0001180  95.9236 264.2082 14.30823839383733
ZHUHAI-1 02 (CAS-4B)    
1 42759U 17034B   24193.54884590  .00016629  00000+0  58376-3 0  9999
2 42759  43.0173  88.7820 0010940 156.5165 203.6189 15.29105813391134
NUSAT-3 (MILANESAT)     
1 42760U 17034C   24193.58882424  .00020667  00000+0  65109-3 0  9998
2 42760  43.0082  73.2365 0014432 184.5809 175.4914 15.32436496391336
ZHUHAI-1 01 (CAS-4A)    
1 42761U 17034D   24193.54837865  .00017291  00000+0  60458-3 0  9995
2 42761  43.0215  87.1182 0010201 170.2957 189.8094 15.29220485391133
